ONEWEB-0094             
1 45450U 20020AC  25202.57924182 -.00000017  00000+0 -77351-4 0  9997
2 45450  87.9045  71.6427 0001757  84.0912 276.0420 13.17649664262776
ONEWEB-0087             
1 45451U 20020AD  25202.43736455  .00000565  00000+0  15572-2 0  9998
2 45451  87.8814  86.9316 0001910  85.6799 274.4547 13.11416863259233
ONEWEB-0082             
1 45452U 20020AE  25202.43410497  .00000309  00000+0  83609-3 0  9997
2 45452  87.8821  86.9561 0002019  80.0323 280.1033 13.11417139259328
ONEWEB-0050             
1 45453U 20020AF  25202.28130161  .00002219  00000+0  22314-3 0  9996
2 45453  87.9986 286.7067 0005199  89.2290 270.9534 14.90811649291117
ONEWEB-0034             
1 45454U 20020AG  25202.60789008  .00000132  00000+0  33604-3 0  9999
2 45454  87.8822  86.9418 0001832  78.3913 281.7421 13.11415150259261
ONEWEB-0060             
1 45455U 20020AH  25202.42506724  .00000272  00000+0  73323-3 0  9999
2 45455  87.8824  87.0070 0001671  78.2345 281.8970 13.11151931259195
ONEWEB-0086             
1 45456U 20020AJ  25202.71046011 -.00000429  00000+0 -12459-2 0  9998
2 45456  87.8826  86.9192 0002335  80.1439 279.9952 13.11413888259296
ONEWEB-0088             
1 45457U 20020AK  25202.61212269 -.00000086  00000+0 -27838-3 0  9995
2 45457  87.8810  86.8866 0001768  82.1719 277.9609 13.11414226259215
